OBJECT_NAME,OBJECT_ID,EPOCH,MEAN_MOTION,ECCENTRICITY,INCLINATION,RA_OF_ASC_NODE,ARG_OF_PERICENTER,MEAN_ANOMALY,EPHEMERIS_TYPE,CLASSIFICATION_TYPE,NORAD_CAT_ID,ELEMENT_SET_NO,REV_AT_EPOCH,BSTAR,MEAN_MOTION_DOT,MEAN_MOTION_DDOT
OSCAR 7 (AO-7),1974-089B,2026-07-11T15:39:16.921152,12.53698483,.00126617,101.9904,206.1538,84.9028,27.9241,0,U,7530,999,36358,.11287365E-3,-.28E-6,0
PHASE 3B (AO-10),1983-058B,2026-07-09T16:55:32.549376,2.05870648,.60033527,25.9319,215.8523,121.8543,310.3469,0,U,14129,999,29595,0,.106E-5,0
UOSAT 2 (UO-11),1984-021B,2026-07-11T20:29:45.562848,14.90844080,.00091874,97.8073,158.1560,100.6765,259.5488,0,U,14781,999,26080,.9251145E-4,.855E-5,0
LUSAT (LO-19),1990-005G,2026-07-11T14:25:22.792800,14.34130085,.00124139,98.8847,215.0786,131.2116,229.0140,0,U,20442,999,90589,.33959512E-4,.48E-6,0
EYESAT A (AO-27),1993-061C,2026-07-11T18:04:06.661632,14.30948497,.00089457,98.6869,260.1561,35.3967,324.7808,0,U,22825,999,71051,.28148853E-4,.29E-6,0
ITAMSAT (IO-26),1993-061D,2026-07-11T17:23:54.346848,14.31376071,.000918,98.6818,260.0482,19.2256,340.9271,0,U,22826,999,71082,.27151127E-4,.27E-6,0
RADIO ROSTO (RS15),1994-085A,2026-07-11T14:15:36.260352,11.27583508,.01567773,64.8162,263.7448,359.3709,0.6996,0,U,23439,999,29865,.41173189E-3,-.28E-6,0
JAS-2 (FO-29),1996-046B,2026-07-11T13:28:03.812736,13.53275331,.03505118,98.5222,38.0921,33.3553,328.9149,0,U,24278,999,47646,.53704958E-4,.19E-6,0
TECHSAT 1B (GO-32),1998-043D,2026-07-11T22:19:44.060448,14.24432954,.00020961,99.0082,186.3145,119.6916,240.4471,0,U,25397,999,45485,.28845336E-4,.2E-6,0
ISS (ZARYA),1998-067A,2026-07-11T19:56:37.121280,15.48984830,.00066855,51.6301,178.1288,284.5605,75.4642,0,U,25544,999,57557,.10800904E-3,.5503E-4,0
PCSAT (NO-44),2001-043C,2026-07-11T22:54:16.334208,14.31964242,.00059523,67.0492,180.2118,266.3271,93.7150,0,U,26931,999,29399,.48416071E-4,.47E-6,0
SAUDISAT 1C (SO-50),2002-058C,2026-07-11T20:02:33.925632,14.83094671,.00746227,64.5517,52.7226,257.8961,101.3778,0,U,27607,999,26811,.65677356E-4,.404E-5,0
CUTE-1 (CO-55),2003-031E,2026-07-11T20:01:49.245600,14.24350218,.00107554,98.6741,201.0838,111.2957,248.9371,0,U,27844,999,19518,.88087823E-4,.16E-5,0
CUBESAT XI-IV (CO-57),2003-031J,2026-07-11T13:18:12.441888,14.23633286,.0010408,98.6772,200.4999,128.9651,231.2457,0,U,27848,999,19484,.76240362E-4,.13E-5,0
MOZHAETS 4 (RS22),2003-042A,2026-07-12T00:21:48.960000,14.73510953,.00109281,98.3477,18.0771,183.3840,328.3234,0,U,27939,999,21920,.82138159E-4,.48E-5,0
CUBESAT XI-V,2005-043F,2026-07-11T09:17:30.194592,14.72696464,.00151315,98.3011,348.5214,126.3821,233.8784,0,U,28895,999,10531,.13420163E-3,.804E-5,0
CUTE-1.7+APD II (CO-65),2008-021C,2026-07-11T21:46:04.127808,15.09681006,.00073103,97.8285,174.8451,312.8836,47.1778,0,U,32785,999,98892,.20471873E-3,.3231E-4,0
SEEDS II (CO-66),2008-021J,2026-07-11T13:05:02.149728,15.33584480,.00026852,97.7522,191.6211,165.1600,194.9721,0,U,32791,999,99102,.34002086E-3,.1096E-3,0
YUBILEINY (RS30),2008-025A,2026-07-11T21:15:25.185024,12.43180925,.00185643,82.5054,340.0752,256.6514,103.2496,0,U,32953,999,82276,.66885978E-3,.103E-5,0
KKS-1 (KISEKI),2009-002H,2026-07-11T21:09:00.755136,14.83184530,.00071479,98.1178,115.7148,200.3372,159.7557,0,U,33499,999,93985,.9122828E-4,.689E-5,0
SWISSCUBE,2009-051B,2026-07-11T17:31:23.635488,14.62526839,.00076812,98.4013,101.0441,128.3881,231.8011,0,U,35932,999,89274,.10850352E-3,.501E-5,0
BEESAT-1,2009-051C,2026-07-11T16:24:52.965504,14.61758535,.00059254,98.3940,100.5811,139.0777,221.0870,0,U,35933,999,89276,.93456424E-4,.417E-5,0
ITUPSAT1,2009-051E,2026-07-11T23:17:18.975264,14.60475983,.0007861,98.4023,100.0372,152.4089,207.7529,0,U,35935,999,89235,.90105677E-4,.388E-5,0
XIWANG-1 (HOPE-1),2009-072B,2026-07-11T22:38:46.664160,13.16438095,.00074591,100.4028,146.3813,172.1200,188.0031,0,U,36122,999,79626,-.84118463E-3,-.366E-5,0
O/OREOS (USA 219),2010-062C,2026-07-11T20:09:47.413440,14.93843835,.00137966,71.9695,24.4901,11.6696,348.4791,0,U,37224,999,12032,.12067044E-3,.122E-4,0
JUGNU,2011-058B,2026-07-11T05:36:35.871264,14.13782829,.00184427,19.9591,162.3323,342.6467,134.7204,0,U,37839,999,76243,.48953406E-4,.361E-5,0
SRMSAT,2011-058D,2026-07-11T07:46:27.887232,14.11580564,.00118573,19.9716,273.3792,108.9537,302.7584,0,U,37841,999,76123,.46525383E-4,.351E-5,0
STRAND-1,2013-009E,2026-07-11T11:50:07.442880,14.37177517,.00092096,98.3931,12.1305,151.3099,208.8597,0,U,39090,999,70055,.66856744E-4,.156E-5,0
ZACUBE-1 (TSHEPISOSAT),2013-066B,2026-07-11T22:27:03.645504,15.01320163,.00438342,97.8011,155.3951,165.6614,194.5866,0,U,39417,999,68444,.11431021E-3,.1437E-4,0
GOMX-1,2013-066Q,2026-07-11T23:18:18.632736,14.69538262,.01285802,97.6478,31.8700,358.5835,1.4990,0,U,39430,999,67355,.14759452E-3,.942E-5,0
