OSCAR 7 (AO-7)          
1 07530U 74089B   26192.65227918 -.00000028  00000+0  11287-3 0  9995
2 07530 101.9904 206.1538 0012661  84.9028  27.9241 12.53698483363582
PHASE 3B (AO-10)        
1 14129U 83058B   26190.70523784  .00000106  00000+0  00000+0 0  9990
2 14129  25.9319 215.8523 6003352 121.8543 310.3469  2.05870648295953
UOSAT 2 (UO-11)         
1 14781U 84021B   26192.85399957  .00000855  00000+0  92511-4 0  9990
2 14781  97.8073 158.1560 0009187 100.6765 259.5488 14.90844080260808
LUSAT (LO-19)           
1 20442U 90005G   26192.60095825  .00000048  00000+0  33960-4 0  9997
2 20442  98.8847 215.0786 0012413 131.2116 229.0140 14.34130085905891
EYESAT A (AO-27)        
1 22825U 93061C   26192.75285488  .00000029  00000+0  28149-4 0  9993
2 22825  98.6869 260.1561 0008945  35.3967 324.7808 14.30948497710512
ITAMSAT (IO-26)         
1 22826U 93061D   26192.72493457  .00000027  00000+0  27151-4 0  9998
2 22826  98.6818 260.0482 0009180  19.2256 340.9271 14.31376071710824
RADIO ROSTO (RS15)      
1 23439U 94085A   26192.59416968 -.00000028  00000+0  41173-3 0  9994
2 23439  64.8162 263.7448 0156777 359.3709   0.6996 11.27583508298653
JAS-2 (FO-29)           
1 24278U 96046B   26192.56115524  .00000019  00000+0  53705-4 0  9990
2 24278  98.5222  38.0921 0350511  33.3553 328.9149 13.53275331476469
TECHSAT 1B (GO-32)      
1 25397U 98043D   26192.93037107  .00000020  00000+0  28845-4 0  9992
2 25397  99.0082 186.3145 0002096 119.6916 240.4471 14.24432954454850
ISS (ZARYA)             
1 25544U 98067A   26192.83098520  .00005503  00000+0  10801-3 0  9990
2 25544  51.6301 178.1288 0006685 284.5605  75.4642 15.48984830575575
PCSAT (NO-44)           
1 26931U 01043C   26192.95435572  .00000047  00000+0  48416-4 0  9996
2 26931  67.0492 180.2118 0005952 266.3271  93.7150 14.31964242293993
SAUDISAT 1C (SO-50)     
1 27607U 02058C   26192.83511488  .00000404  00000+0  65677-4 0  9997
2 27607  64.5517  52.7226 0074622 257.8961 101.3778 14.83094671268113
CUTE-1 (CO-55)          
1 27844U 03031E   26192.83459775  .00000160  00000+0  88088-4 0  9992
2 27844  98.6741 201.0838 0010755 111.2957 248.9371 14.24350218195186
CUBESAT XI-IV (CO-57)   
1 27848U 03031J   26192.55431067  .00000130  00000+0  76240-4 0  9993
2 27848  98.6772 200.4999 0010408 128.9651 231.2457 14.23633286194846
MOZHAETS 4 (RS22)       
1 27939U 03042A   26193.01515000  .00000480  00000+0  82138-4 0  9999
2 27939  98.3477  18.0771 0010928 183.3840 328.3234 14.73510953219208
CUBESAT XI-V            
1 28895U 05043F   26192.38715503  .00000804  00000+0  13420-3 0  9990
2 28895  98.3011 348.5214 0015131 126.3821 233.8784 14.72696464105311
CUTE-1.7+APD II (CO-65) 
1 32785U 08021C   26192.90699222  .00003231  00000+0  20472-3 0  9991
2 32785  97.8285 174.8451 0007310 312.8836  47.1778 15.09681006988924
SEEDS II (CO-66)        
1 32791U 08021J   26192.54516377  .00010960  00000+0  34002-3 0  9998
2 32791  97.7522 191.6211 0002685 165.1600 194.9721 15.33584480991022
YUBILEINY (RS30)        
1 32953U 08025A   26192.88570816  .00000103  00000+0  66886-3 0  9990
2 32953  82.5054 340.0752 0018564 256.6514 103.2496 12.43180925822767
KKS-1 (KISEKI)          
1 33499U 09002H   26192.88125874  .00000689  00000+0  91228-4 0  9990
2 33499  98.1178 115.7148 0007147 200.3372 159.7557 14.83184530939857
SWISSCUBE               
1 35932U 09051B   26192.73013467  .00000501  00000+0  10850-3 0  9990
2 35932  98.4013 101.0441 0007681 128.3881 231.8011 14.62526839892745
BEESAT-1                
1 35933U 09051C   26192.68394636  .00000417  00000+0  93456-4 0  9995
2 35933  98.3940 100.5811 0005925 139.0777 221.0870 14.61758535892766
ITUPSAT1                
1 35935U 09051E   26192.97035851  .00000388  00000+0  90106-4 0  9996
2 35935  98.4023 100.0372 0007861 152.4089 207.7529 14.60475983892353
XIWANG-1 (HOPE-1)       
1 36122U 09072B   26192.94359565 -.00000366  00000+0 -84118-3 0  9999
2 36122 100.4028 146.3813 0007459 172.1200 188.0031 13.16438095796266
O/OREOS (USA 219)       
1 37224U 10062C   26192.84013210  .00001220  00000+0  12067-3 0  9999
2 37224  71.9695  24.4901 0013796  11.6696 348.4791 14.93843835120324
JUGNU                   
1 37839U 11058B   26192.23374851  .00000361  00000+0  48953-4 0  9990
2 37839  19.9591 162.3323 0018442 342.6467 134.7204 14.13782829762435
SRMSAT                  
1 37841U 11058D   26192.32393388  .00000351  00000+0  46525-4 0  9991
2 37841  19.9716 273.3792 0011857 108.9537 302.7584 14.11580564761239
STRAND-1                
1 39090U 13009E   26192.49314170  .00000156  00000+0  66857-4 0  9990
2 39090  98.3931  12.1305 0009209 151.3099 208.8597 14.37177517700555
ZACUBE-1 (TSHEPISOSAT)  
1 39417U 13066B   26192.93545886  .00001437  00000+0  11431-3 0  9995
2 39417  97.8011 155.3951 0043834 165.6614 194.5866 15.01320163684449
GOMX-1                  
1 39430U 13066Q   26192.97104899  .00000942  00000+0  14759-3 0  9995
2 39430  97.6478  31.8700 0128580 358.5835   1.4990 14.69538262673557
